[{"OBJECT_NAME":"FLORIPASAT-1","OBJECT_ID":"2019-093G","EPOCH":"2026-03-09T23:35:55.317696","MEAN_MOTION":15.02721611,"ECCENTRICITY":0.00131238,"INCLINATION":97.7908,"RA_OF_ASC_NODE":162.596,"ARG_OF_PERICENTER":52.6692,"MEAN_ANOMALY":307.5727,"EPHEMERIS_TYPE":0,"CLASSIFICATION_TYPE":"U","NORAD_CAT_ID":44885,"ELEMENT_SET_NO":999,"REV_AT_EPOCH":33774,"BSTAR":0.00066057159,"MEAN_MOTION_DOT":8.782e-5,"MEAN_MOTION_DDOT":0},{"OBJECT_NAME":"STARLINK-5270","OBJECT_ID":"2023-010AG","EPOCH":"2026-03-09T21:30:57.397824","MEAN_MOTION":14.9832395,"ECCENTRICITY":0.00027794,"INCLINATION":70.0014,"RA_OF_ASC_NODE":23.7967,"ARG_OF_PERICENTER":270.2355,"MEAN_ANOMALY":89.8485,"EPHEMERIS_TYPE":0,"CLASSIFICATION_TYPE":"U","NORAD_CAT_ID":55299,"ELEMENT_SET_NO":999,"REV_AT_EPOCH":17418,"BSTAR":5.9683956e-5,"MEAN_MOTION_DOT":6.19e-6,"MEAN_MOTION_DDOT":0}]
